STARLINK-31563          
1 59190U 24045N   26068.42750084 -.00005958  00000+0 -20698-3 0  9997
2 59190  43.0040  93.8225 0001830 260.4348  99.6297 15.27602366113123
COSMOS 2576             
1 59773U 24092A   26068.82603826  .00015211  00000+0  56283-3 0  9991
2 59773  97.4253 186.0053 0005946 159.7731 200.3745 15.27760963101271
